[{"OBJECT_NAME":"STARLINK-5663","OBJECT_ID":"2023-013S","EPOCH":"2026-03-09T01:04:02.640000","MEAN_MOTION":15.02539408,"ECCENTRICITY":8.053e-5,"INCLINATION":43.0041,"RA_OF_ASC_NODE":303.7282,"ARG_OF_PERICENTER":243.6886,"MEAN_ANOMALY":116.3874,"EPHEMERIS_TYPE":0,"CLASSIFICATION_TYPE":"U","NORAD_CAT_ID":55347,"ELEMENT_SET_NO":999,"REV_AT_EPOCH":17161,"BSTAR":-0.00012622335,"MEAN_MOTION_DOT":-1.908e-5,"MEAN_MOTION_DDOT":0},{"OBJECT_NAME":"COSMOS 374 DEB","OBJECT_ID":"1970-089DD","EPOCH":"2026-03-09T00:30:31.749120","MEAN_MOTION":14.57132291,"ECCENTRICITY":0.02939814,"INCLINATION":62.3835,"RA_OF_ASC_NODE":49.0638,"ARG_OF_PERICENTER":167.8535,"MEAN_ANOMALY":192.9834,"EPHEMERIS_TYPE":0,"CLASSIFICATION_TYPE":"U","NORAD_CAT_ID":18517,"ELEMENT_SET_NO":999,"REV_AT_EPOCH":85937,"BSTAR":0.0016091669,"MEAN_MOTION_DOT":0.00013075,"MEAN_MOTION_DDOT":0}]
